{
  "type": "FeatureCollection",
  "features": [
    {
      "type": "Feature",
      "properties": {
        "norad_id": 66566,
        "name": "STARLINK-35871",
        "group": "last-30-days",
        "lat": -42.94993880659865,
        "lon": 45.664808627624,
        "alt_km": 417.3720057885521,
        "timestamp": "2025-12-10T16:57:10.416163+00:00",
        "meta_object_name": "STARLINK-35871",
        "meta_object_id": "2025-268K",
        "meta_epoch": "2025-12-10T12:00:02.998944",
        "meta_mean_motion": 15.50582063,
        "meta_eccentricity": 0.0001586,
        "meta_inclination": 43.0002,
        "meta_ra_of_asc_node": 134.255,
        "meta_arg_of_pericenter": 265.9252,
        "meta_mean_anomaly": 292.8322,
        "meta_ephemeris_type": 0,
        "meta_classification_type": "U",
        "meta_norad_cat_id": 66566,
        "meta_element_set_no": 999,
        "meta_rev_at_epoch": 430,
        "meta_bstar": -0.00082523,
        "meta_mean_motion_dot": -0.00048461,
        "meta_mean_motion_ddot": 0,
        "tle_line1": "1 66566U 25268K   25344.50003471 -.00048461  00000+0 -82523-3 0  9997",
        "tle_line2": "2 66566  43.0002 134.2550 0001586 265.9252 292.8322 15.50582063  4301"
      },
      "geometry": {
        "type": "Point",
        "coordinates": [
          45.664808627624,
          -42.94993880659865
        ]
      }
    },
    {
      "type": "Feature",
      "properties": {
        "norad_id": 66567,
        "name": "STARLINK-35825",
        "group": "last-30-days",
        "lat": -42.855205705573596,
        "lon": 48.39074999996075,
        "alt_km": 416.62725928905184,
        "timestamp": "2025-12-10T16:57:10.416173+00:00",
        "meta_object_name": "STARLINK-35825",
        "meta_object_id": "2025-268L",
        "meta_epoch": "2025-12-10T12:00:02.998944",
        "meta_mean_motion": 15.50656061,
        "meta_eccentricity": 0.0002094,
        "meta_inclination": 43.0003,
        "meta_ra_of_asc_node": 134.2501,
        "meta_arg_of_pericenter": 277.0892,
        "meta_mean_anomaly": 283.5973,
        "meta_ephemeris_type": 0,
        "meta_classification_type": "U",
        "meta_norad_cat_id": 66567,
        "meta_element_set_no": 999,
        "meta_rev_at_epoch": 430,
        "meta_bstar": 0.0019574,
        "meta_mean_motion_dot": 0.00116535,
        "meta_mean_motion_ddot": 0,
        "tle_line1": "1 66567U 25268L   25344.50003471  .00116535  00000+0  19574-2 0  9999",
        "tle_line2": "2 66567  43.0003 134.2501 0002094 277.0892 283.5973 15.50656061  4307"
      },
      "geometry": {
        "type": "Point",
        "coordinates": [
          48.39074999996075,
          -42.855205705573596
        ]
      }
    },
    {
      "type": "Feature",
      "properties": {
        "norad_id": 66568,
        "name": "STARLINK-35803",
        "group": "last-30-days",
        "lat": -42.71198920515978,
        "lon": 50.87022858166841,
        "alt_km": 417.41013895642845,
        "timestamp": "2025-12-10T16:57:10.416183+00:00",
        "meta_object_name": "STARLINK-35803",
        "meta_object_id": "2025-268M",
        "meta_epoch": "2025-12-10T12:00:02.998944",
        "meta_mean_motion": 15.50589152,
        "meta_eccentricity": 0.0001534,
        "meta_inclination": 43.0002,
        "meta_ra_of_asc_node": 134.2448,
        "meta_arg_of_pericenter": 263.1521,
        "meta_mean_anomaly": 299.4382,
        "meta_ephemeris_type": 0,
        "meta_classification_type": "U",
        "meta_norad_cat_id": 66568,
        "meta_element_set_no": 999,
        "meta_rev_at_epoch": 430,
        "meta_bstar": -0.0010775,
        "meta_mean_motion_dot": -0.0006307,
        "meta_mean_motion_ddot": 0,
        "tle_line1": "1 66568U 25268M   25344.50003471 -.00063070  00000+0 -10775-2 0  9991",
        "tle_line2": "2 66568  43.0002 134.2448 0001534 263.1521 299.4382 15.50589152  4306"
      },
      "geometry": {
        "type": "Point",
        "coordinates": [
          50.87022858166841,
          -42.71198920515978
        ]
      }
    },
    {
      "type": "Feature",
      "properties": {
        "norad_id": 66569,
        "name": "STARLINK-35835",
        "group": "last-30-days",
        "lat": -42.504958400915534,
        "lon": 53.45214014839283,
        "alt_km": 417.40821086206597,
        "timestamp": "2025-12-10T16:57:10.416193+00:00",
        "meta_object_name": "STARLINK-35835",
        "meta_object_id": "2025-268N",
        "meta_epoch": "2025-12-10T12:00:02.998944",
        "meta_mean_motion": 15.50599535,
        "meta_eccentricity": 0.0001506,
        "meta_inclination": 43.0002,
        "meta_ra_of_asc_node": 134.2405,
        "meta_arg_of_pericenter": 265.2285,
        "meta_mean_anomaly": 299.2744,
        "meta_ephemeris_type": 0,
        "meta_classification_type": "U",
        "meta_norad_cat_id": 66569,
        "meta_element_set_no": 999,
        "meta_rev_at_epoch": 430,
        "meta_bstar": -0.0013626,
        "meta_mean_motion_dot": -0.00079528,
        "meta_mean_motion_ddot": 0,
        "tle_line1": "1 66569U 25268N   25344.50003471 -.00079528  00000+0 -13626-2 0  9995",
        "tle_line2": "2 66569  43.0002 134.2405 0001506 265.2285 299.2744 15.50599535  4305"
      },
      "geometry": {
        "type": "Point",
        "coordinates": [
          53.45214014839283,
          -42.504958400915534
        ]
      }
    },
    {
      "type": "Feature",
      "properties": {
        "norad_id": 66570,
        "name": "STARLINK-35834",
        "group": "last-30-days",
        "lat": -42.24093057571157,
        "lon": 56.00781938531855,
        "alt_km": 417.4800995927426,
        "timestamp": "2025-12-10T16:57:10.416204+00:00",
        "meta_object_name": "STARLINK-35834",
        "meta_object_id": "2025-268P",
        "meta_epoch": "2025-12-10T12:00:02.998944",
        "meta_mean_motion": 15.50609823,
        "meta_eccentricity": 0.0001397,
        "meta_inclination": 43.0003,
        "meta_ra_of_asc_node": 134.2349,
        "meta_arg_of_pericenter": 260.7257,
        "meta_mean_anomaly": 305.6834,
        "meta_ephemeris_type": 0,
        "meta_classification_type": "U",
        "meta_norad_cat_id": 66570,
        "meta_element_set_no": 999,
        "meta_rev_at_epoch": 430,
        "meta_bstar": -0.0015691,
        "meta_mean_motion_dot": -0.00091423,
        "meta_mean_motion_ddot": 0,
        "tle_line1": "1 66570U 25268P   25344.50003471 -.00091423  00000+0 -15691-2 0  9999",
        "tle_line2": "2 66570  43.0003 134.2349 0001397 260.7257 305.6834 15.50609823  4306"
      },
      "geometry": {
        "type": "Point",
        "coordinates": [
          56.00781938531855,
          -42.24093057571157
        ]
      }
    },
    {
      "type": "Feature",
      "properties": {
        "norad_id": 66571,
        "name": "STARLINK-35836",
        "group": "last-30-days",
        "lat": -41.919885400779926,
        "lon": 58.54453347367048,
        "alt_km": 417.40287793351126,
        "timestamp": "2025-12-10T16:57:10.416213+00:00",
        "meta_object_name": "STARLINK-35836",
        "meta_object_id": "2025-268Q",
        "meta_epoch": "2025-12-10T12:00:02.998944",
        "meta_mean_motion": 15.50587442,
        "meta_eccentricity": 0.0001521,
        "meta_inclination": 43.0003,
        "meta_ra_of_asc_node": 134.2307,
        "meta_arg_of_pericenter": 263.697,
        "meta_mean_anomaly": 304.6386,
        "meta_ephemeris_type": 0,
        "meta_classification_type": "U",
        "meta_norad_cat_id": 66571,
        "meta_element_set_no": 999,
        "meta_rev_at_epoch": 430,
        "meta_bstar": -0.00090099,
        "meta_mean_motion_dot": -0.00052859,
        "meta_mean_motion_ddot": 0,
        "tle_line1": "1 66571U 25268Q   25344.50003471 -.00052859  00000+0 -90099-3 0  9996",
        "tle_line2": "2 66571  43.0003 134.2307 0001521 263.6970 304.6386 15.50587442  4307"
      },
      "geometry": {
        "type": "Point",
        "coordinates": [
          58.54453347367048,
          -41.919885400779926
        ]
      }
    },
    {
      "type": "Feature",
      "properties": {
        "norad_id": 66572,
        "name": "STARLINK-35870",
        "group": "last-30-days",
        "lat": -41.542073709374534,
        "lon": 61.0613009763241,
        "alt_km": 417.4329240655061,
        "timestamp": "2025-12-10T16:57:10.416225+00:00",
        "meta_object_name": "STARLINK-35870",
        "meta_object_id": "2025-268R",
        "meta_epoch": "2025-12-10T12:00:02.998944",
        "meta_mean_motion": 15.50597914,
        "meta_eccentricity": 0.000145,
        "meta_inclination": 43.0002,
        "meta_ra_of_asc_node": 134.2265,
        "meta_arg_of_pericenter": 264.3914,
        "meta_mean_anomaly": 305.8614,
        "meta_ephemeris_type": 0,
        "meta_classification_type": "U",
        "meta_norad_cat_id": 66572,
        "meta_element_set_no": 999,
        "meta_rev_at_epoch": 430,
        "meta_bstar": -0.0012662,
        "meta_mean_motion_dot": -0.00073977,
        "meta_mean_motion_ddot": 0,
        "tle_line1": "1 66572U 25268R   25344.50003471 -.00073977  00000+0 -12662-2 0  9990",
        "tle_line2": "2 66572  43.0002 134.2265 0001450 264.3914 305.8614 15.50597914  4309"
      },
      "geometry": {
        "type": "Point",
        "coordinates": [
          61.0613009763241,
          -41.542073709374534
        ]
      }
    }
  ]
}